{
  "type": "FeatureCollection",
  "features": [
    {
      "type": "Feature",
      "properties": {
        "norad_id": 33939,
        "name": "COSMOS 2251 DEB",
        "group": "cosmos-2251-debris",
        "lat": -0.5563519405371674,
        "lon": -117.01428023389612,
        "alt_km": 571.2064357498984,
        "timestamp": "2025-12-21T11:31:43.252532+00:00",
        "meta_object_name": "COSMOS 2251 DEB",
        "meta_object_id": "1993-036EU",
        "meta_epoch": "2025-12-20T21:55:31.501056",
        "meta_mean_motion": 15.00412042,
        "meta_eccentricity": 0.0004561,
        "meta_inclination": 74.0063,
        "meta_ra_of_asc_node": 63.9804,
        "meta_arg_of_pericenter": 25.6366,
        "meta_mean_anomaly": 334.5046,
        "meta_ephemeris_type": 0,
        "meta_classification_type": "U",
        "meta_norad_cat_id": 33939,
        "meta_element_set_no": 999,
        "meta_rev_at_epoch": 88875,
        "meta_bstar": 0.0017226,
        "meta_mean_motion_dot": 0.00021692,
        "meta_mean_motion_ddot": 0,
        "tle_line1": "1 33939U 93036EU  25354.91355904  .00021692  00000+0  17226-2 0  9992",
        "tle_line2": "2 33939  74.0063  63.9804 0004561  25.6366 334.5046 15.00412042888753"
      },
      "geometry": {
        "type": "Point",
        "coordinates": [
          -117.01428023389612,
          -0.5563519405371674
        ]
      }
    },
    {
      "type": "Feature",
      "properties": {
        "norad_id": 33940,
        "name": "COSMOS 2251 DEB",
        "group": "cosmos-2251-debris",
        "lat": 74.02667549914558,
        "lon": -142.0603098572171,
        "alt_km": 692.8944765951464,
        "timestamp": "2025-12-21T11:31:43.252542+00:00",
        "meta_object_name": "COSMOS 2251 DEB",
        "meta_object_id": "1993-036EV",
        "meta_epoch": "2025-12-20T19:23:55.850784",
        "meta_mean_motion": 14.58863748,
        "meta_eccentricity": 0.00109392,
        "meta_inclination": 74.0394,
        "meta_ra_of_asc_node": 128.1332,
        "meta_arg_of_pericenter": 208.5936,
        "meta_mean_anomaly": 313.5769,
        "meta_ephemeris_type": 0,
        "meta_classification_type": "U",
        "meta_norad_cat_id": 33940,
        "meta_element_set_no": 999,
        "meta_rev_at_epoch": 88711,
        "meta_bstar": 0.00068787791,
        "meta_mean_motion_dot": 3.195e-05,
        "meta_mean_motion_ddot": 0,
        "tle_line1": "1 33940U 93036EV  25354.80828531  .00003195  00000+0  68788-3 0  9991",
        "tle_line2": "2 33940  74.0394 128.1332 0010939 208.5936 313.5769 14.58863748887116"
      },
      "geometry": {
        "type": "Point",
        "coordinates": [
          -142.0603098572171,
          74.02667549914558
        ]
      }
    },
    {
      "type": "Feature",
      "properties": {
        "norad_id": 33942,
        "name": "COSMOS 2251 DEB",
        "group": "cosmos-2251-debris",
        "lat": -7.2478721092928335,
        "lon": -103.35435029990778,
        "alt_km": 754.1915794628176,
        "timestamp": "2025-12-21T11:31:43.252552+00:00",
        "meta_object_name": "COSMOS 2251 DEB",
        "meta_object_id": "1993-036EX",
        "meta_epoch": "2025-12-21T03:45:50.053248",
        "meta_mean_motion": 14.37999524,
        "meta_eccentricity": 0.0020666,
        "meta_inclination": 74.0365,
        "meta_ra_of_asc_node": 259.3275,
        "meta_arg_of_pericenter": 341.0297,
        "meta_mean_anomaly": 137.3083,
        "meta_ephemeris_type": 0,
        "meta_classification_type": "U",
        "meta_norad_cat_id": 33942,
        "meta_element_set_no": 999,
        "meta_rev_at_epoch": 88255,
        "meta_bstar": 0.0001579,
        "meta_mean_motion_dot": 4.52e-06,
        "meta_mean_motion_ddot": 0,
        "tle_line1": "1 33942U 93036EX  25355.15682932  .00000452  00000+0  15790-3 0  9993",
        "tle_line2": "2 33942  74.0365 259.3275 0020666 341.0297 137.3083 14.37999524882553"
      },
      "geometry": {
        "type": "Point",
        "coordinates": [
          -103.35435029990778,
          -7.2478721092928335
        ]
      }
    },
    {
      "type": "Feature",
      "properties": {
        "norad_id": 33944,
        "name": "COSMOS 2251 DEB",
        "group": "cosmos-2251-debris",
        "lat": -25.86290444211901,
        "lon": 120.81941371404237,
        "alt_km": 852.8124324822684,
        "timestamp": "2025-12-21T11:31:43.252563+00:00",
        "meta_object_name": "COSMOS 2251 DEB",
        "meta_object_id": "1993-036EZ",
        "meta_epoch": "2025-12-21T04:26:23.257824",
        "meta_mean_motion": 14.37360412,
        "meta_eccentricity": 0.0112541,
        "meta_inclination": 74.0407,
        "meta_ra_of_asc_node": 293.3886,
        "meta_arg_of_pericenter": 30.8269,
        "meta_mean_anomaly": 88.1962,
        "meta_ephemeris_type": 0,
        "meta_classification_type": "U",
        "meta_norad_cat_id": 33944,
        "meta_element_set_no": 999,
        "meta_rev_at_epoch": 88149,
        "meta_bstar": 0.00025556,
        "meta_mean_motion_dot": 7.94e-06,
        "meta_mean_motion_ddot": 0,
        "tle_line1": "1 33944U 93036EZ  25355.18499141  .00000794  00000+0  25556-3 0  9996",
        "tle_line2": "2 33944  74.0407 293.3886 0112541  30.8269  88.1962 14.37360412881493"
      },
      "geometry": {
        "type": "Point",
        "coordinates": [
          120.81941371404237,
          -25.86290444211901
        ]
      }
    },
    {
      "type": "Feature",
      "properties": {
        "norad_id": 33945,
        "name": "COSMOS 2251 DEB",
        "group": "cosmos-2251-debris",
        "lat": -73.75130355478305,
        "lon": -149.0259148709236,
        "alt_km": 786.4065903631572,
        "timestamp": "2025-12-21T11:31:43.252573+00:00",
        "meta_object_name": "COSMOS 2251 DEB",
        "meta_object_id": "1993-036FA",
        "meta_epoch": "2025-12-21T03:33:53.399808",
        "meta_mean_motion": 14.34606818,
        "meta_eccentricity": 0.002227,
        "meta_inclination": 74.0302,
        "meta_ra_of_asc_node": 290.8592,
        "meta_arg_of_pericenter": 14.918,
        "meta_mean_anomaly": 345.2624,
        "meta_ephemeris_type": 0,
        "meta_classification_type": "U",
        "meta_norad_cat_id": 33945,
        "meta_element_set_no": 999,
        "meta_rev_at_epoch": 88136,
        "meta_bstar": 9.4201e-05,
        "meta_mean_motion_dot": 2.41e-06,
        "meta_mean_motion_ddot": 0,
        "tle_line1": "1 33945U 93036FA  25355.14853472  .00000241  00000+0  94201-4 0  9995",
        "tle_line2": "2 33945  74.0302 290.8592 0022270  14.9180 345.2624 14.34606818881366"
      },
      "geometry": {
        "type": "Point",
        "coordinates": [
          -149.0259148709236,
          -73.75130355478305
        ]
      }
    },
    {
      "type": "Feature",
      "properties": {
        "norad_id": 33948,
        "name": "COSMOS 2251 DEB",
        "group": "cosmos-2251-debris",
        "lat": 24.171783265725097,
        "lon": 101.71572091576641,
        "alt_km": 786.535750348221,
        "timestamp": "2025-12-21T11:31:43.252583+00:00",
        "meta_object_name": "COSMOS 2251 DEB",
        "meta_object_id": "1993-036FD",
        "meta_epoch": "2025-12-20T21:25:55.314048",
        "meta_mean_motion": 14.35637965,
        "meta_eccentricity": 0.0023094,
        "meta_inclination": 74.036,
        "meta_ra_of_asc_node": 290.1745,
        "meta_arg_of_pericenter": 4.0403,
        "meta_mean_anomaly": 356.0932,
        "meta_ephemeris_type": 0,
        "meta_classification_type": "U",
        "meta_norad_cat_id": 33948,
        "meta_element_set_no": 999,
        "meta_rev_at_epoch": 88140,
        "meta_bstar": 0.0001361,
        "meta_mean_motion_dot": 3.67e-06,
        "meta_mean_motion_ddot": 0,
        "tle_line1": "1 33948U 93036FD  25354.89300132  .00000367  00000+0  13610-3 0  9992",
        "tle_line2": "2 33948  74.0360 290.1745 0023094   4.0403 356.0932 14.35637965881404"
      },
      "geometry": {
        "type": "Point",
        "coordinates": [
          101.71572091576641,
          24.171783265725097
        ]
      }
    },
    {
      "type": "Feature",
      "properties": {
        "norad_id": 33971,
        "name": "COSMOS 2251 DEB",
        "group": "cosmos-2251-debris",
        "lat": -8.449324519421479,
        "lon": -124.85927505927285,
        "alt_km": 749.9773677943667,
        "timestamp": "2025-12-21T11:31:43.252593+00:00",
        "meta_object_name": "COSMOS 2251 DEB",
        "meta_object_id": "1993-036FE",
        "meta_epoch": "2025-12-21T03:57:31.252320",
        "meta_mean_motion": 14.39738677,
        "meta_eccentricity": 0.0018876,
        "meta_inclination": 74.0243,
        "meta_ra_of_asc_node": 238.1624,
        "meta_arg_of_pericenter": 337.2094,
        "meta_mean_anomaly": 179.8953,
        "meta_ephemeris_type": 0,
        "meta_classification_type": "U",
        "meta_norad_cat_id": 33971,
        "meta_element_set_no": 999,
        "meta_rev_at_epoch": 88260,
        "meta_bstar": 0.0001889,
        "meta_mean_motion_dot": 5.66e-06,
        "meta_mean_motion_ddot": 0,
        "tle_line1": "1 33971U 93036FE  25355.16494505  .00000566  00000+0  18890-3 0  9993",
        "tle_line2": "2 33971  74.0243 238.1624 0018876 337.2094 179.8953 14.39738677882600"
      },
      "geometry": {
        "type": "Point",
        "coordinates": [
          -124.85927505927285,
          -8.449324519421479
        ]
      }
    }
  ]
}